{"type": "FeatureCollection", "features": [ {"type": "Feature", "properties": {"norad_id": 36367, "name": "COSMOS 2251 DEB", "group": "cosmos-2251-debris", "lat": 20.311520367259313, "lon": -143.89328796752804, "alt_km": 973.1011181988852, "timestamp": "2025-12-25T09:48:52.686254+00:00", "meta": {"OBJECT_NAME": "COSMOS 2251 DEB", "OBJECT_ID": "1993-036AYU", "EPOCH": "2025-12-24T07:44:10.721184", "MEAN_MOTION": 13.86386722, "ECCENTRICITY": 0.02617345, "INCLINATION": 74.0995, "RA_OF_ASC_NODE": 211.8828, "ARG_OF_PERICENTER": 282.2009, "MEAN_ANOMALY": 74.9918, "EPHEMERIS_TYPE": 0, "CLASSIFICATION_TYPE": "U", "NORAD_CAT_ID": 36367, "ELEMENT_SET_NO": 999, "REV_AT_EPOCH": 57690, "BSTAR": 0.0017134049, "MEAN_MOTION_DOT": 2.573e-05, "MEAN_MOTION_DDOT": 0}, "tle": {"line1": "1 36367U 93036AYU 25358.32234631  .00002573  00000+0  17134-2 0  9997", "line2": "2 36367  74.0995 211.8828 0261734 282.2009  74.9918 13.86386722576908"}}, "geometry": {"type": "Point", "coordinates": [-143.89328796752804, 20.311520367259313]}}, {"type": "Feature", "properties": {"norad_id": 36369, "name": "COSMOS 2251 DEB", "group": "cosmos-2251-debris", "lat": -16.158409873336414, "lon": -129.2216269409046, "alt_km": 652.0378081412155, "timestamp": "2025-12-25T09:48:52.686264+00:00", "meta": {"OBJECT_NAME": "COSMOS 2251 DEB", "OBJECT_ID": "1993-036AYW", "EPOCH": "2025-12-21T10:25:50.498400", "MEAN_MOTION": 14.73682344, "ECCENTRICITY": 0.0010476, "INCLINATION": 74.0314, "RA_OF_ASC_NODE": 53.7689, "ARG_OF_PERICENTER": 128.4088, "MEAN_ANOMALY": 231.8027, "EPHEMERIS_TYPE": 0, "CLASSIFICATION_TYPE": "U", "NORAD_CAT_ID": 36369, "ELEMENT_SET_NO": 999, "REV_AT_EPOCH": 86050, "BSTAR": 0.00084133, "MEAN_MOTION_DOT": 5.466e-05, "MEAN_MOTION_DDOT": 0}, "tle": {"line1": "1 36369U 93036AYW 25355.43461225  .00005466  00000+0  84133-3 0  9997", "line2": "2 36369  74.0314  53.7689 0010476 128.4088 231.8027 14.73682344860509"}}, "geometry": {"type": "Point", "coordinates": [-129.2216269409046, -16.158409873336414]}}, {"type": "Feature", "properties": {"norad_id": 36371, "name": "COSMOS 2251 DEB", "group": "cosmos-2251-debris", "lat": -25.370782154976215, "lon": 129.09504064230057, "alt_km": 669.0788499428409, "timestamp": "2025-12-25T09:48:52.686274+00:00", "meta": {"OBJECT_NAME": "COSMOS 2251 DEB", "OBJECT_ID": "1993-036AYY", "EPOCH": "2025-12-24T15:58:44.173920", "MEAN_MOTION": 14.70864576, "ECCENTRICITY": 0.00085465, "INCLINATION": 74.0132, "RA_OF_ASC_NODE": 138.3528, "ARG_OF_PERICENTER": 177.886, "MEAN_ANOMALY": 182.2349, "EPHEMERIS_TYPE": 0, "CLASSIFICATION_TYPE": "U", "NORAD_CAT_ID": 36371, "ELEMENT_SET_NO": 999, "REV_AT_EPOCH": 71620, "BSTAR": 0.0022493193, "MEAN_MOTION_DOT": 0.00013763, "MEAN_MOTION_DDOT": 0}, "tle": {"line1": "1 36371U 93036AYY 25358.66578905  .00013763  00000+0  22493-2 0  9991", "line2": "2 36371  74.0132 138.3528 0008546 177.8860 182.2349 14.70864576716202"}}, "geometry": {"type": "Point", "coordinates": [129.09504064230057, -25.370782154976215]}}, {"type": "Feature", "properties": {"norad_id": 36379, "name": "COSMOS 2251 DEB", "group": "cosmos-2251-debris", "lat": -3.0058412472168636, "lon": -77.33187395837506, "alt_km": 754.6142556557515, "timestamp": "2025-12-25T09:48:52.686284+00:00", "meta": {"OBJECT_NAME": "COSMOS 2251 DEB", "OBJECT_ID": "1993-036AZG", "EPOCH": "2025-12-21T02:14:38.502816", "MEAN_MOTION": 14.36091919, "ECCENTRICITY": 0.00448164, "INCLINATION": 74.0129, "RA_OF_ASC_NODE": 291.4624, "ARG_OF_PERICENTER": 57.9805, "MEAN_ANOMALY": 317.791, "EPHEMERIS_TYPE": 0, "CLASSIFICATION_TYPE": "U", "NORAD_CAT_ID": 36379, "ELEMENT_SET_NO": 999, "REV_AT_EPOCH": 64948, "BSTAR": 0.00021634378, "MEAN_MOTION_DOT": 6.11e-06, "MEAN_MOTION_DDOT": 0}, "tle": {"line1": "1 36379U 93036AZG 25355.09350119  .00000611  00000+0  21634-3 0  9993", "line2": "2 36379  74.0129 291.4624 0044816  57.9805 317.7910 14.36091919649480"}}, "geometry": {"type": "Point", "coordinates": [-77.33187395837506, -3.0058412472168636]}}, {"type": "Feature", "properties": {"norad_id": 36385, "name": "COSMOS 2251 DEB", "group": "cosmos-2251-debris", "lat": 5.471872649947596, "lon": -51.812484045874584, "alt_km": 713.2782230290477, "timestamp": "2025-12-25T09:48:52.686294+00:00", "meta": {"OBJECT_NAME": "COSMOS 2251 DEB", "OBJECT_ID": "1993-036AZN", "EPOCH": "2025-12-20T19:47:03.334560", "MEAN_MOTION": 14.72696016, "ECCENTRICITY": 0.01415357, "INCLINATION": 73.9698, "RA_OF_ASC_NODE": 138.7285, "ARG_OF_PERICENTER": 311.3318, "MEAN_ANOMALY": 47.5743, "EPHEMERIS_TYPE": 0, "CLASSIFICATION_TYPE": "U", "NORAD_CAT_ID": 36385, "ELEMENT_SET_NO": 999, "REV_AT_EPOCH": 85221, "BSTAR": 0.0008039038, "MEAN_MOTION_DOT": 5.978e-05, "MEAN_MOTION_DDOT": 0}, "tle": {"line1": "1 36385U 93036AZN 25354.82434415  .00005978  00000+0  80390-3 0  9997", "line2": "2 36385  73.9698 138.7285 0141535 311.3318  47.5743 14.72696016852212"}}, "geometry": {"type": "Point", "coordinates": [-51.812484045874584, 5.471872649947596]}}, {"type": "Feature", "properties": {"norad_id": 36420, "name": "COSMOS 2251 DEB", "group": "cosmos-2251-debris", "lat": -73.61760532060299, "lon": 175.38884458494914, "alt_km": 769.7740505111797, "timestamp": "2025-12-25T09:48:52.686303+00:00", "meta": {"OBJECT_NAME": "COSMOS 2251 DEB", "OBJECT_ID": "1993-036AZT", "EPOCH": "2025-12-21T02:55:38.256384", "MEAN_MOTION": 14.36907864, "ECCENTRICITY": 0.00184562, "INCLINATION": 74.0376, "RA_OF_ASC_NODE": 260.0713, "ARG_OF_PERICENTER": 346.0954, "MEAN_ANOMALY": 80.7548, "EPHEMERIS_TYPE": 0, "CLASSIFICATION_TYPE": "U", "NORAD_CAT_ID": 36420, "ELEMENT_SET_NO": 999, "REV_AT_EPOCH": 85157, "BSTAR": 0.00010545411, "MEAN_MOTION_DOT": 2.86e-06, "MEAN_MOTION_DDOT": 0}, "tle": {"line1": "1 36420U 93036AZT 25355.12197056  .00000286  00000+0  10545-3 0  9990", "line2": "2 36420  74.0376 260.0713 0018456 346.0954  80.7548 14.36907864851574"}}, "geometry": {"type": "Point", "coordinates": [175.38884458494914, -73.61760532060299]}}, {"type": "Feature", "properties": {"norad_id": 36430, "name": "COSMOS 2251 DEB", "group": "cosmos-2251-debris", "lat": -56.55284097682819, "lon": -68.72977772502205, "alt_km": 736.0112205928508, "timestamp": "2025-12-25T09:48:52.686313+00:00", "meta": {"OBJECT_NAME": "COSMOS 2251 DEB", "OBJECT_ID": "1993-036BAD", "EPOCH": "2025-12-22T23:31:00.132096", "MEAN_MOTION": 14.27817368, "ECCENTRICITY": 0.00978453, "INCLINATION": 74.0045, "RA_OF_ASC_NODE": 89.9408, "ARG_OF_PERICENTER": 238.1166, "MEAN_ANOMALY": 121.0434, "EPHEMERIS_TYPE": 0, "CLASSIFICATION_TYPE": "U", "NORAD_CAT_ID": 36430, "ELEMENT_SET_NO": 999, "REV_AT_EPOCH": 64703, "BSTAR": 0.00047484504, "MEAN_MOTION_DOT": 1.209e-05, "MEAN_MOTION_DDOT": 0}, "tle": {"line1": "1 36430U 93036BAD 25356.97986264  .00001209  00000+0  47485-3 0  9991", "line2": "2 36430  74.0045  89.9408 0097845 238.1166 121.0434 14.27817368647038"}}, "geometry": {"type": "Point", "coordinates": [-68.72977772502205, -56.55284097682819]}}, {"type": "Feature", "properties": {"norad_id": 36437, "name": "COSMOS 2251 DEB", "group": "cosmos-2251-debris", "lat": 41.97117929475659, "lon": 24.282313531913537, "alt_km": 670.3119356030957, "timestamp": "2025-12-25T09:48:52.686326+00:00", "meta": {"OBJECT_NAME": "COSMOS 2251 DEB", "OBJECT_ID": "1993-036BAL", "EPOCH": "2025-12-20T18:36:38.364192", "MEAN_MOTION": 14.70810572, "ECCENTRICITY": 0.00231641, "INCLINATION": 73.942, "RA_OF_ASC_NODE": 18.3096, "ARG_OF_PERICENTER": 249.5495, "MEAN_ANOMALY": 110.3188, "EPHEMERIS_TYPE": 0, "CLASSIFICATION_TYPE": "U", "NORAD_CAT_ID": 36437, "ELEMENT_SET_NO": 999, "REV_AT_EPOCH": 66169, "BSTAR": 0.00075908188, "MEAN_MOTION_DOT": 4.626e-05, "MEAN_MOTION_DDOT": 0}, "tle": {"line1": "1 36437U 93036BAL 25354.77544403  .00004626  00000+0  75908-3 0  9996", "line2": "2 36437  73.9420  18.3096 0023164 249.5495 110.3188 14.70810572661696"}}, "geometry": {"type": "Point", "coordinates": [24.282313531913537, 41.97117929475659]}}, {"type": "Feature", "properties": {"norad_id": 36439, "name": "COSMOS 2251 DEB", "group": "cosmos-2251-debris", "lat": 46.3273130610779, "lon": 178.96829483091298, "alt_km": 1333.9854736983007, "timestamp": "2025-12-25T09:48:52.686336+00:00", "meta": {"OBJECT_NAME": "COSMOS 2251 DEB", "OBJECT_ID": "1993-036BAN", "EPOCH": "2025-12-24T18:55:29.525952", "MEAN_MOTION": 13.47827423, "ECCENTRICITY": 0.04286024, "INCLINATION": 73.9682, "RA_OF_ASC_NODE": 17.4852, "ARG_OF_PERICENTER": 346.947, "MEAN_ANOMALY": 12.0809, "EPHEMERIS_TYPE": 0, "CLASSIFICATION_TYPE": "U", "NORAD_CAT_ID": 36439, "ELEMENT_SET_NO": 999, "REV_AT_EPOCH": 58775, "BSTAR": 0.001418873, "MEAN_MOTION_DOT": 1.511e-05, "MEAN_MOTION_DDOT": 0}, "tle": {"line1": "1 36439U 93036BAN 25358.78853618  .00001511  00000+0  14189-2 0  9997", "line2": "2 36439  73.9682  17.4852 0428602 346.9470  12.0809 13.47827423587757"}}, "geometry": {"type": "Point", "coordinates": [178.96829483091298, 46.3273130610779]}}, {"type": "Feature", "properties": {"norad_id": 36441, "name": "COSMOS 2251 DEB", "group": "cosmos-2251-debris", "lat": -12.61327796079079, "lon": -40.31635645090138, "alt_km": 526.4428739581772, "timestamp": "2025-12-25T09:48:52.686346+00:00", "meta": {"OBJECT_NAME": "COSMOS 2251 DEB", "OBJECT_ID": "1993-036BAQ", "EPOCH": "2025-12-24T06:47:11.580288", "MEAN_MOTION": 15.06947099, "ECCENTRICITY": 0.01081187, "INCLINATION": 73.8372, "RA_OF_ASC_NODE": 325.7458, "ARG_OF_PERICENTER": 62.0973, "MEAN_ANOMALY": 299.1114, "EPHEMERIS_TYPE": 0, "CLASSIFICATION_TYPE": "U", "NORAD_CAT_ID": 36441, "ELEMENT_SET_NO": 999, "REV_AT_EPOCH": 87139, "BSTAR": 0.00056857521, "MEAN_MOTION_DOT": 9.688e-05, "MEAN_MOTION_DDOT": 0}, "tle": {"line1": "1 36441U 93036BAQ 25358.28277292  .00009688  00000+0  56858-3 0  9996", "line2": "2 36441  73.8372 325.7458 0108118  62.0973 299.1114 15.06947099871395"}}, "geometry": {"type": "Point", "coordinates": [-40.31635645090138, -12.61327796079079]}}]}